[{"OBJECT_NAME":"YAOGAN-36 04C","OBJECT_ID":"2022-171E","EPOCH":"2026-03-09T18:55:44.889600","MEAN_MOTION":15.29852307,"ECCENTRICITY":0.00066848,"INCLINATION":34.9797,"RA_OF_ASC_NODE":96.6578,"ARG_OF_PERICENTER":275.3761,"MEAN_ANOMALY":84.6192,"EPHEMERIS_TYPE":0,"CLASSIFICATION_TYPE":"U","NORAD_CAT_ID":54750,"ELEMENT_SET_NO":999,"REV_AT_EPOCH":18024,"BSTAR":0.00054591902,"MEAN_MOTION_DOT":0.00016196,"MEAN_MOTION_DDOT":0},{"OBJECT_NAME":"STARLINK-36458","OBJECT_ID":"2026-003K","EPOCH":"2026-03-09T11:33:01.311552","MEAN_MOTION":15.27571621,"ECCENTRICITY":0.00014309,"INCLINATION":42.9974,"RA_OF_ASC_NODE":228.0961,"ARG_OF_PERICENTER":230.7461,"MEAN_ANOMALY":129.3264,"EPHEMERIS_TYPE":0,"CLASSIFICATION_TYPE":"U","NORAD_CAT_ID":67343,"ELEMENT_SET_NO":999,"REV_AT_EPOCH":879,"BSTAR":0.0013148191,"MEAN_MOTION_DOT":0.00036087,"MEAN_MOTION_DDOT":0}]
